STARLINK-36461          
1 67316U 26002M   26031.50002314  .00038737  00000+0  66386-3 0  9999
2 67316  42.9995 176.5256 0001642 267.9970 215.1064 15.50535589  5592
STARLINK-36450          
1 67317U 26002N   26031.50002314  .00033120  00000+0  56880-3 0  9999
2 67317  42.9992 176.5210 0001575 267.3344 217.6833 15.50538718  5592
STARLINK-36498          
1 67318U 26002P   26031.50002314  .00036741  00000+0  63004-3 0  9998
2 67318  42.9997 176.5102 0001940 272.5041 216.3438 15.50539001  5500
STARLINK-36470          
1 67319U 26002Q   26031.50002314  .00034078  00000+0  58498-3 0  9991
2 67319  42.9993 176.5159 0001523 266.1365 220.7965 15.50539356  5501
STARLINK-36500          
1 67320U 26002R   26031.50002314  .00038216  00000+0  65508-3 0  9991
2 67320  42.9993 176.5072 0001564 262.2671 228.5067 15.50534605  5500
STARLINK-36462          
1 67321U 26002S   26031.50002314  .00037114  00000+0  63639-3 0  9991
2 67321  42.9992 176.4971 0001569 266.6480 227.9574 15.50537109  5449
STARLINK-36434          
1 67322U 26002T   26031.50002314  .00032909  00000+0  56524-3 0  9994
2 67322  42.9992 176.5021 0001517 268.2991 224.3879 15.50538047  5446
STARLINK-36497          
1 67323U 26002U   26031.50002314  .00034476  00000+0  59170-3 0  9996
2 67323  42.9992 176.4918 0002092 274.4114 222.1081 15.50539266  5508
STARLINK-36471          
1 67324U 26002V   26031.50002314  .00034372  00000+0  58995-3 0  9996
2 67324  42.9992 176.4824 0002013 275.1774 225.1742 15.50539796  5446
STARLINK-36473          
1 67325U 26002W   26031.50002314  .00037595  00000+0  64430-3 0  9998
2 67325  42.9993 176.4873 0002037 279.4924 218.9247 15.50546563  5598
STARLINK-36430          
1 67326U 26002X   26031.50002314  .00062892  00000+0  10712-2 0  9990
2 67326  42.9994 176.4729 0002045 276.1106 228.0729 15.50527415  5597
STARLINK-36501          
1 67327U 26002Y   26031.50002314  .00036027  00000+0  61799-3 0  9994
2 67327  42.9992 176.4774 0002105 275.8476 226.4243 15.50537622  5447
